lat,lon,streetname,country
46.5438105,15.6490454,Titova - Nasipna,slovenia
46.544603,15.6488038,Titova - Nasipna,slovenia
46.5414255,15.6484224,Titova - Prol. brigad,slovenia
46.5398051,15.6463444,Prol. brigad - Titova,slovenia
46.5545507,15.6508086,Titov most,slovenia
46.5576561,15.650895,Titova cesta,slovenia
46.5562037,15.6507418,Titov most,slovenia
45.7698647,14.1970378,Titova cesta,slovenia
46.3586873,15.116171,Titov trg,slovenia
46.4367862,14.0538143,Cesta maršala Tita,slovenia
46.4343383,14.0516346,Cesta maršala Tita,slovenia
46.4371628,14.0511555,Cesta maršala Tita,slovenia
46.4386563,14.0482756,Cesta maršala Tita,slovenia
46.5544113,15.6502193,Titova cesta,slovenia
46.5602524,15.6510315,Titova cesta,slovenia
45.774644,14.2129239,Titova cesta,slovenia
46.1837083,13.7342977,Trg maršala Tita,slovenia
46.5591113,15.6513172,Titova cesta,slovenia
46.5529122,15.650255,Titova cesta,slovenia
45.772172,14.2082308,Titova cesta,slovenia
45.7726873,14.2106451,Titova cesta,slovenia
46.4353674,14.0521938,Cesta maršala Tita,slovenia
46.4370486,14.0530568,Cesta maršala Tita,slovenia
46.5595709,15.6511247,Titova cesta,slovenia
45.5644983,14.248474,Trg maršala Tita,slovenia
46.4379279,14.0478952,Cesta maršala Tita,slovenia
46.5547522,15.6505296,Titova cesta,slovenia
46.5603343,15.6515499,Titova cesta,slovenia
46.5444708,15.6489671,Titova cesta,slovenia
46.5578353,15.6510143,Titova cesta,slovenia
46.5547479,15.6506296,Titova cesta,slovenia
46.5582303,15.6510945,Titova cesta,slovenia
46.5529122,15.6503592,Titova cesta,slovenia
46.5562016,15.6508397,Titov most,slovenia
46.6464214,16.0375466,Titova ulica,slovenia
46.5128094,16.4389839,Ulica Josipa Broza-Tita,slovenia
46.5490066,15.6490582,Titova cesta,slovenia
46.5443212,15.6488736,Titova cesta,slovenia
45.771745,14.2055193,Titova cesta,slovenia
45.771459,14.2043802,Titova cesta,slovenia
46.4350262,14.0520798,Cesta maršala Tita,slovenia
46.4344527,14.0517233,Cesta maršala Tita,slovenia
46.5509043,15.6498136,Titova cesta,slovenia
46.5490286,15.6489586,Titova cesta,slovenia
46.5580951,15.6508429,Titova cesta,slovenia
45.548189,13.729602,Titov trg / Piazza Tito,slovenia
46.5601782,15.6513308,Titova cesta,slovenia
45.9190139,14.2226564,Titova ulica,slovenia
46.5600489,15.6513777,Titova cesta,slovenia
46.5589338,15.6510494,Titova cesta,slovenia
46.5581767,15.6509534,Titova cesta,slovenia
46.5599985,15.6514439,Titova cesta,slovenia
45.565051,14.2489876,Trg maršala Tita,slovenia
45.5642865,14.2488128,Trg maršala Tita,slovenia
46.1823929,13.7340017,Trg maršala Tita,slovenia
46.182667,13.7348445,Trg maršala Tita,slovenia
46.5578926,15.6509978,Titova cesta,slovenia
46.5581404,15.6510121,Titova cesta,slovenia
46.5579466,15.6508347,Titova cesta,slovenia
46.5579908,15.6511619,Titova cesta,slovenia
46.551085,15.6496221,Titova cesta,slovenia
46.0644981,15.1706025,Titova ulica,slovenia
46.5510776,15.6501826,Titova cesta,slovenia
46.5512775,15.6499482,Titova cesta,slovenia
46.5103301,16.4349419,Josipa Broza Tita,slovenia
46.4363495,14.0565634,Cesta maršala Tita,slovenia
46.4365847,14.0549269,Cesta maršala Tita,slovenia
46.4366688,14.0526918,Cesta maršala Tita,slovenia
46.4368333,14.0535864,Cesta maršala Tita,slovenia
46.4366386,14.0536274,Cesta maršala Tita,slovenia
46.4361621,14.0579576,Cesta maršala Tita,slovenia
46.4367529,14.053699,Cesta maršala Tita,slovenia
46.4417174,14.038078,Cesta maršala Tita,slovenia
46.4419384,14.0369406,Cesta maršala Tita,slovenia
46.4418568,14.0371771,Cesta maršala Tita,slovenia
46.4440119,14.0316296,Cesta maršala Tita,slovenia
46.4416092,14.0384368,Cesta maršala Tita,slovenia
46.4420817,14.0366178,Cesta maršala Tita,slovenia
46.4423395,14.0362426,Cesta maršala Tita,slovenia
46.4429093,14.0354942,Cesta maršala Tita,slovenia
46.4375442,14.0506002,Cesta maršala Tita,slovenia
46.4368566,14.0513004,Cesta maršala Tita,slovenia
46.4363275,14.0596994,Cesta maršala Tita,slovenia
46.4430431,14.0352577,Cesta maršala Tita,slovenia
46.4399424,14.04367,Cesta maršala Tita,slovenia
46.435936,14.0592872,Cesta maršala Tita,slovenia
46.4364648,14.0557117,Cesta maršala Tita,slovenia
46.4404405,14.0413243,Cesta maršala Tita,slovenia
46.4369063,14.0535811,Cesta maršala Tita,slovenia
46.4358735,14.0594785,Cesta maršala Tita,slovenia
46.4358124,14.0596456,Cesta maršala Tita,slovenia
46.4424663,14.036077,Cesta maršala Tita,slovenia
46.4432303,14.0347735,Cesta maršala Tita,slovenia
46.4365083,14.0554264,Cesta maršala Tita,slovenia
46.4366616,14.0541931,Cesta maršala Tita,slovenia
45.7712111,14.203181,Titova cesta,slovenia
45.7705279,14.2003468,Titova cesta,slovenia
45.7736468,14.2117448,Titova cesta,slovenia
46.4366268,14.0525711,Cesta maršala Tita,slovenia
45.7715915,14.205588,Titova cesta,slovenia
45.7729774,14.2105836,Titova cesta,slovenia
45.3272445,14.4477395,Titov trg,croatia
45.2255416,13.5953093,Obala Maršala Tita,croatia
45.3283301,13.5628156,Ulica Josipa Broza Tita,croatia
45.8524455,15.8086332,Ulica Maršala Tita,croatia
45.3249252,13.5640349,Ulica Josipa Broza Tita,croatia
45.1487373,13.6011795,Obala m. Tita,croatia
45.713099,16.0670998,Trg maršala Tita,croatia
45.7137604,16.0671659,Trg maršala Tita,croatia
45.3412996,14.3109607,Maršala Tita,croatia
45.8343569,15.822892,Ulica Maršala Tita,croatia
45.8382093,15.820825900000001,Ulica Maršala Tita,croatia
45.2288341,13.5910696,Obala maršala Tita,croatia
45.1493588,13.6034249,Obala m. Tita,croatia
45.326898,14.299585,Maršala Tita,croatia
44.5470098,15.9689663,Ulica Maršala Tita,croatia
45.8101074,15.970746,Trg Maršala Tita,croatia
45.3366147,14.3078564,Maršala Tita,croatia
45.6482739,16.1332475,Maršala Tita,croatia
45.0791354,14.1553615,Obala Maršala Tita,croatia
45.0855421,14.1227106,Titov trg,croatia
45.3337279,14.3050085,Maršala Tita,croatia
45.3297048,14.301146,Maršala Tita,croatia
45.0791028,14.1550693,Obala Maršala Tita,croatia
45.1599004,14.71898,Maršala Tita,croatia
45.0734462,14.1643004,Obala Maršala Tita,croatia
45.330906,14.301721,Maršala Tita,croatia
45.9428689,17.3070494,Maršala Tita,croatia
45.3274648,14.4479831,Titov trg,croatia
45.3274572,14.4482779,Titov trg,croatia
45.810164,15.9695937,Trg Maršala Tita,croatia
45.8098823,15.9709201,Trg Maršala Tita,croatia
46.0233184,15.904779,Josipa Broza Tita,croatia
46.0222641,15.9056888,Ulica Josipa Broza Tita,croatia
45.3099439,14.2858899,Šetalište Maršala Tita,croatia
45.8387965,15.8230052,Ulica Maršala Tita,croatia
45.8396338,15.821388,Ulica Maršala Tita,croatia
45.8426072,15.8163124,Ulica Maršala Tita,croatia
45.8395662,15.8213297,Ulica Maršala Tita,croatia
45.8417005,15.8169568,Ulica Maršala Tita,croatia
45.847757,15.8122994,Maršala Tita,croatia
45.7138311,16.0669673,Trg maršala Tita,croatia
45.8379805,15.8247206,Maršala Tita,croatia
45.8380499,15.8247873,Maršala Tita,croatia
45.8352666,15.8227777,Ulica Maršala Tita,croatia
44.5506447,15.9615216,Ulica Maršala Tita,croatia
45.8382844,15.8242805,Ulica Maršala Tita,croatia
45.8098173,15.969213,Trg Maršala Tita,croatia
45.8098475,15.9691122,Trg Maršala Tita,croatia
45.8102666,15.9691682,Trg Maršala Tita,croatia
45.3274582,14.448734,Titov trg,croatia
45.0821286,13.6345741,Trg Maršala Tita,croatia
45.2618829,14.2647914,Šetalište maršala Tita,croatia
43.7342345,15.8936133,Poljana maršala Tita,croatia
43.7345997,15.8934866,Poljana maršala Tita,croatia
45.0744875,14.1606543,Obala Maršala Tita,croatia
45.0782194,14.1592946,Obala Maršala Tita,croatia
45.1483265,13.602948,Obala m. Tita,croatia
45.3197202,14.2941056,Maršala Tita,croatia
45.3188517,14.2914664,Maršala Tita,croatia
45.2979731,14.2761596,Šetalište maršala Tita,croatia
45.2943884,14.2760235,Šetalište maršala Tita,croatia
45.0770419,14.0793236,Maršala Tita,croatia
45.4091254,13.6576722,Trg J. B. Tita,croatia
45.3217194,13.5653024,Ulica Josipa Broza Tita,croatia
45.3268466,13.5633687,Ulica Josipa Broza Tita,croatia
45.3203191,13.5677998,Ulica Josipa Broza Tita,croatia
45.3230373,13.5644659,Ulica Josipa Broza Tita,croatia
45.3201155,13.5681611,Ulica Josipa Broza Tita,croatia
45.4336215,13.5199196,Obala Josipa Broza Tita,croatia
45.4339838,13.5188067,Obala Josipa Broza Tita,croatia
45.8533661,15.807385,Ulica Maršala Tita,croatia
45.3255044,13.5638419,Ulica Josipa Broza Tita,croatia
45.7135124,16.0677939,Trg maršala Tita,croatia
45.1560727,14.7215272,Maršala Tita,croatia
45.1621368,14.7159176,Maršala Tita,croatia
45.3314103,14.3017218,Maršala Tita,croatia
45.0792478,14.1585205,Obala Maršala Tita,croatia
45.0771131,14.1596509,Obala Maršala Tita,croatia
45.075914,14.1598694,Obala Maršala Tita,croatia
45.4090542,13.6586027,Trg J. B. Tita,croatia
45.4087134,13.6581887,Trg J. B. Tita,croatia
46.4157124,16.4244526,Maršala Tita,croatia
45.0856386,14.1230684,Titov trg,croatia
45.343331,14.3138077,Maršala Tita,croatia
46.4292167,16.4574862,Maršala Tita,croatia
45.8090454,15.9709718,Trg Maršala Tita,croatia
45.8101747,15.9707104,Trg Maršala Tita,croatia
45.8102149,15.9699641,Trg Maršala Tita,croatia
45.3793243,13.7223551,Trg Jozipa Broza Tita,croatia
46.4074697,16.4205975,Maršala Tita,croatia
46.3994618,16.4260555,Maršala Tita,croatia
46.3767995,16.3823877,Ulica maršala Tita,croatia
46.3761333,16.3859014,Ulica maršala Tita,croatia
46.3763035,16.3854454,Ulica maršala Tita,croatia
45.4340796,13.5177309,Obala Josipa Broza Tita,croatia
45.2273252,13.5907818,Obala maršala Tita,croatia
45.2268965,13.5930874,Obala maršala Tita,croatia
45.0855824,14.1222441,Titov trg,croatia
45.3450897,14.3163042,Maršala Tita,croatia
45.1486287,13.6035216,Obala m. Tita,croatia
45.0858009,14.123087,Titov trg,croatia
45.2895099,14.2755981,Šetalište maršala Tita,croatia
45.0760316,14.1599859,Obala Maršala Tita,croatia
45.0736678,14.1625151,Obala Maršala Tita,croatia
45.0765588,14.1600636,Obala Maršala Tita,croatia
45.8447055,15.8145961,Maršala Tita,croatia
45.8450715,15.8143091,Ulica Maršala Tita,croatia
45.8457203,15.8138384,Ulica Maršala Tita,croatia
45.8433592,15.8155959,Ulica Maršala Tita,croatia
45.8384638,15.8237055,Ulica Maršala Tita,croatia
45.8451733,15.8144306,Ulica Maršala Tita,croatia
45.8461986,15.8134696,Ulica Maršala Tita,croatia
45.8412516,15.8180276,Ulica Maršala Tita,croatia
45.843902,15.8151876,Ulica Maršala Tita,croatia
45.847532,15.8124102,Ulica Maršala Tita,croatia
45.8465288,15.8133692,Ulica Maršala Tita,croatia
45.8403471,15.8199187,Ulica Maršala Tita,croatia
46.4008598,16.4245024,Maršala Tita,croatia
45.7020138,17.1742075,Hodaliste marsala tita,croatia
45.8399893,15.8204479,Ulica Maršala Tita,croatia
45.8404715,15.8195474,Ulica Maršala Tita,croatia
45.2759798,14.2722651,Šetalište maršala Tita,croatia
45.3326239,14.3032081,Maršala Tita,croatia
43.8589479,18.4160038,Maršala Tita,bosnia-herzegovina
43.8566621,18.4097212,Maršala Tita,bosnia-herzegovina
43.8588259,18.4212306,Maršala Tita,bosnia-herzegovina
44.5346122,18.6830579,Maršala Tita,bosnia-herzegovina
44.5343764,18.6961608,Maršala Tita,bosnia-herzegovina
43.3259221,17.822785,Maršala Tita,bosnia-herzegovina
44.4510976,18.6480409,ul. Maršala Tita,bosnia-herzegovina
44.5291832,18.5346375,Titova,bosnia-herzegovina
43.3439745,17.8108558,Titov most,bosnia-herzegovina
43.33982,17.8151205,Maršala Tita,bosnia-herzegovina
43.3464322,17.8134045,Maršala Tita,bosnia-herzegovina
44.8150634,15.87053,Trg maršala Tita,bosnia-herzegovina
43.3500385,17.8125345,Maršala Tita,bosnia-herzegovina
44.6131401,17.98663,Titova,bosnia-herzegovina
45.0121191,18.3263912,Titova,bosnia-herzegovina
44.8827939,16.157034,Ul Maršala Tita,bosnia-herzegovina
44.1996388,17.9069,Maršala Tita,bosnia-herzegovina
44.1990866,17.9111537,Titova,bosnia-herzegovina
44.3424763,17.2713227,Maršala Tita,bosnia-herzegovina
44.4424154,18.1441684,Maršala Tita,bosnia-herzegovina
44.4413909,18.142897,Maršala Tita,bosnia-herzegovina
44.441389,18.1427146,Maršala Tita,bosnia-herzegovina
44.199079,17.9110544,ul.Marsala Tita,bosnia-herzegovina
44.5346859,18.6876369,Maršala Tita,bosnia-herzegovina
44.6136587,17.9873619,Titova,bosnia-herzegovina
44.0212141,18.2609644,Maršala Tita,bosnia-herzegovina
44.5346471,18.6917146,Maršala Tita,bosnia-herzegovina
44.5345825,18.6916073,Maršala Tita,bosnia-herzegovina
43.6537165,17.9617352,Maršala Tita,bosnia-herzegovina
43.6523566,17.9624471,Maršala Tita,bosnia-herzegovina
44.8818729,16.1575384,Ulica Maršala Tita,bosnia-herzegovina
45.0301922,18.3268821,Titova,bosnia-herzegovina
45.0216868,18.325991899999998,Titova,bosnia-herzegovina
44.8776467,18.4287228,Titova,bosnia-herzegovina
43.6694304,18.9791162,Maršala Tita,bosnia-herzegovina
44.8784784,18.426536,Titova,bosnia-herzegovina
43.6545655,17.9629663,Maršala Tita,bosnia-herzegovina
43.6539808,17.9623487,Maršala Tita,bosnia-herzegovina
43.668727,18.9766926,Maršala Tita,bosnia-herzegovina
43.6690474,18.9781267,Maršala Tita,bosnia-herzegovina
43.66918,18.9786284,Maršala Tita,bosnia-herzegovina
43.6691544,18.97923,Maršala Tita,bosnia-herzegovina
44.3746568,16.3840467,Titova ili Put Oficirske Škole,bosnia-herzegovina
44.3708489,16.3883229,Titova ili Put Oficirske Škole,bosnia-herzegovina
44.3519477,16.4222912,Titova ili Put Oficirske Škole,bosnia-herzegovina
44.5349637,18.6834004,Maršala Tita,bosnia-herzegovina
43.6527739,17.9631835,Maršala Tita,bosnia-herzegovina
44.4414598,18.1428514,Maršala Tita,bosnia-herzegovina
44.5344466,18.6957891,Maršala Tita,bosnia-herzegovina
44.6523341,17.9473196,Maršala Tita,bosnia-herzegovina
44.3680554,16.3920777,Titova ili Put Oficirske Škole,bosnia-herzegovina
44.534566,18.686998,Maršala Tita,bosnia-herzegovina
46.0927973,20.2658064,Тито Маршал,serbia
46.1052781,19.6592657,Aleja Maršala Tita,serbia
46.1251574,19.6944743,Титоградска,serbia
46.1070095,19.6572129,Aleja Maršala Tita,serbia
45.94474,19.6669582,Титоградска,serbia
45.7931822,19.8267165,Maršala Tita,serbia
44.7851173,19.7068263,Marsala Tita,serbia
43.3195783,21.9341129,Ктитор,serbia
44.7355786,20.6068313,Maršala Tita,serbia
45.3605353,19.5917022,Maršala Tita,serbia
45.3610458,19.5355598,Ulica Marsala Tita,serbia
45.3645104,19.5278107,Ulica Marsala Tita,serbia
43.7327981,20.6824146,Титоградска,serbia
44.7281754,20.6039908,Maršala Tita,serbia
46.1025724,19.661429,Aleja Maršala Tita,serbia
44.6067357,21.195828,Титоградска,serbia
44.6068842,21.1962916,Титоградска,serbia
42.5569752,21.9066434,Титоградска,serbia
44.808923,20.5778973,Maršala Tita,serbia
44.7291914,20.3720199,Титова,serbia
44.7290818,20.3709748,Титова,serbia
45.7731985,19.5892687,Maršala Tita,serbia
42.4264554,19.2699152,Josipa Broza Tita,montenegro
42.4534665,18.5310613,trg Maršala Tita,montenegro
42.101503,19.0950325,Maršala Tita,montenegro
42.8401766,20.1618951,Marsala Tita,montenegro
42.4650834,19.2935688,Titove Korenice,montenegro
42.4304462,18.6955846,Marsala Tita,montenegro
41.9306528,19.2105744,Gjergj Kastrioti - Skënderbeu / Maršal Tito,montenegro
42.4352505,19.2748445,Josipa Broza Tita,montenegro
42.4280366,19.2708442,Josipa Broza Tita,montenegro
42.4284945,19.2711151,Josipa Broza Tita,montenegro
42.4286168,19.2711845,Josipa Broza Tita,montenegro
42.4299357,19.271901,Josipa Broza Tita,montenegro
42.4312851,19.272719,Josipa Broza Tita,montenegro
42.432998,19.2737101,Josipa Broza Tita,montenegro
42.4333911,19.2739062,Josipa Broza Tita,montenegro
42.4340502,19.274286,Josipa Broza Tita,montenegro
42.4341568,19.2743563,Josipa Broza Tita,montenegro
42.4346413,19.2746391,Josipa Broza Tita,montenegro
42.4341968,19.2742361,Josipa Broza Tita,montenegro
42.4340865,19.2741721,Josipa Broza Tita,montenegro
42.4334346,19.2737941,Josipa Broza Tita,montenegro
42.4286539,19.2710388,Josipa Broza Tita,montenegro
42.099273,19.0920561,Maršala Tita,montenegro
42.0999541,19.0934953,Maršala Tita,montenegro
41.5090529,21.2261126,Маршал Тито,macedonia
41.5079183,21.219245,Маршал Тито,macedonia
41.482816,22.0802064,Маршал Тито,macedonia
42.0037147,20.989018,ul. Marshal Tito,macedonia
41.9179926,22.4112028,Marsal Tito,macedonia
41.920965700000004,22.4106802,Маршал Тито,macedonia
41.9182986,22.4108658,Маршал Тито,macedonia
41.9944403,21.4431043,Титовелешка,macedonia
42.2026059,22.3352682,Marshal Tito,macedonia
42.201787,22.3345687,Marshal Tito,macedonia
42.2032879,22.3352973,Marshal Tito,macedonia
42.2118286,22.3456083,Marshal Tito,macedonia
41.7025164,22.8578648,Маршал Тито,macedonia
41.9624699,22.7754905,Маршал Тито,macedonia
41.9624579,22.7789392,Титоградска,macedonia
41.9626305,22.7740899,Маршал Тито,macedonia
41.1387535,22.5011649,Маршал Тито,macedonia
41.8833231,22.5057932,bul. Marsal Tito,macedonia
41.8869854,22.5164413,bul. Marsal Tito,macedonia
41.035952,21.3282858,Титово Ужице,macedonia
42.119496,21.732577,Титова Митровачка,macedonia
41.863142,21.9452514,Маршал Тито,macedonia
41.5230941,20.9644994,Маршал Тито,macedonia
41.9554842,22.780676,Маршал Тито,macedonia
41.9555281,22.7812446,Маршал Тито,macedonia
41.1421899,22.5090418,Маршал Тито,macedonia
41.4877138,22.0923063,Маршал Тито,macedonia
41.1843846,22.7221215,Маршал Тито,macedonia
41.3191617,22.5549826,Маршал Тито,macedonia
41.3182794,22.5597408,Маршал Тито,macedonia
41.6322243,22.4556472,Маршал Тито,macedonia
42.0030244,20.9905069,ul. Marshal Tito,macedonia
42.0088646,20.9726493,ул. Маршал Тито,macedonia
41.9198506,22.4100893,Маршал Тито,macedonia
41.9163839,22.4117882,Маршал Тито,macedonia
41.4356691,22.6411912,Улица Маршал Тито,macedonia
41.4089752,22.2446286,Маршал Тито,macedonia
42.0061456,20.9800821,ул. Маршал Тито,macedonia
42.0082079,20.9744525,ул. Маршал Тито,macedonia
41.7106841,22.8538884,Маршал Тито,macedonia
41.8857993,22.5092908,bul. Marsal Tito,macedonia
41.6376292,22.4604194,Маршал Тито,macedonia
41.511224,20.9627613,Маршал Тито,macedonia
41.5073389,21.2162019,Маршал Тито,macedonia
41.5073653,21.2167445,Маршал Тито,macedonia
41.507339,21.22187,Маршал Тито,macedonia
41.5074518,21.2182239,Маршал Тито,macedonia
41.507367,21.2182363,Маршал Тито,macedonia
42.00811,20.9744765,ул. Маршал Тито,macedonia
42.0089613,20.972659,ул. Маршал Тито,macedonia
41.5047531,20.9619355,Маршал Тито,macedonia
41.1395417,22.5027383,Маршал Тито,macedonia
42.020832,22.5897413,Маршал Тито,macedonia
41.2228796,21.2029328,Маршал Тито,macedonia
41.1404185,22.5048678,Маршал Тито,macedonia
42.0035034,20.9894261,ul. Marshal Tito,macedonia
42.0049002,20.9843978,ул. Маршал Тито,macedonia
42.0067131,20.9787159,ул. Маршал Тито,macedonia
42.0050281,20.9835757,ul. Mar[al Тито,macedonia
41.4304978,22.6449931,Булевар Маршал Тито,macedonia
42.212073,22.3458593,Marshal Tito,macedonia
41.4255908,22.6474333,Булевар Маршал Тито,macedonia
41.4272545,22.6460506,Булевар Маршал Тито,macedonia
41.437019,22.6378823,Улица Маршал Тито,macedonia
41.1773369,20.6736529,ул. Маршал Тито,macedonia
41.5162019,20.9631533,Маршал Тито,macedonia
41.7385089,22.1978597,Кеј Маршал Тито,macedonia
41.920964,22.4107303,Маршал Тито,macedonia
41.9209545,22.4110171,Маршал Тито,macedonia
41.4829496,22.0866615,Маршал Тито,macedonia
41.4946799,22.0977725,Маршал Тито,macedonia
41.4975553,22.1004283,Маршал Тито,macedonia
41.4982946,22.1012313,Маршал Тито,macedonia
41.4976338,22.1003605,Маршал Тито,macedonia
41.9653235,22.7709245,Маршал Тито,macedonia
41.9622946,22.7787171,Титоградска,macedonia
41.9560347,22.7803809,Маршал Тито,macedonia
41.1750778,20.6626211,Маршал Тито,macedonia
41.738459400000004,22.1965076,Кеј Маршал Тито,macedonia
41.3317929,22.4753697,Маршал Тито,macedonia
41.1372461,22.4983838,Маршал Тито,macedonia
41.4983294,22.1011359,Маршал Тито,macedonia
41.494619900000004,22.0979019,Маршал Тито,macedonia
41.2242918,21.2028094,Маршал Тито,macedonia
41.2270596,21.2023266,Маршал Тито,macedonia
41.736348,22.189904,Кеј Маршал Тито,macedonia
41.7382995,22.196065,Кеј Маршал Тито,macedonia
41.7370111,22.1933198,Кеј Маршал Тито,macedonia
41.714821,22.85138,Маршал Тито,macedonia
41.7153345,22.8509775,Маршал Тито,macedonia
42.0074835,20.9767185,ул. Маршал Тито,macedonia
42.0074248,20.9765415,ул. Маршал Тито,macedonia
